CCSDS_OMM_VERS = 2.0
CREATION_DATE  = 
ORIGINATOR     = 

OBJECT_NAME    = STARLINK-35441
OBJECT_ID      = 2025-223R
CENTER_NAME    = EARTH
REF_FRAME      = TEME
TIME_SYSTEM    = UTC
MEAN_ELEMENT_THEORY = SGP/SGP4

EPOCH          = 2025-10-31T15:15:10.465056
MEAN_MOTION    = 15.39628253
ECCENTRICITY   = .0001511
INCLINATION    = 53.1606
RA_OF_ASC_NODE = 175.9704
ARG_OF_PERICENTER = 95.2279
MEAN_ANOMALY   = 264.8898

EPHEMERIS_TYPE = 0
CLASSIFICATION_TYPE = U
NORAD_CAT_ID   = 65869
ELEMENT_SET_NO = 999
REV_AT_EPOCH   = 441
BSTAR          = .11745E-2
MEAN_MOTION_DOT = .46882E-3
MEAN_MOTION_DDOT = 0

CCSDS_OMM_VERS = 2.0
CREATION_DATE  = 
ORIGINATOR     = 

OBJECT_NAME    = STARLINK-35433
OBJECT_ID      = 2025-223S
CENTER_NAME    = EARTH
REF_FRAME      = TEME
TIME_SYSTEM    = UTC
MEAN_ELEMENT_THEORY = SGP/SGP4

EPOCH          = 2025-10-31T16:00:01.998720
MEAN_MOTION    = 15.39586308
ECCENTRICITY   = .000134
INCLINATION    = 53.1602
RA_OF_ASC_NODE = 175.6701
ARG_OF_PERICENTER = 106.6285
MEAN_ANOMALY   = 143.5201

EPHEMERIS_TYPE = 0
CLASSIFICATION_TYPE = U
NORAD_CAT_ID   = 65870
ELEMENT_SET_NO = 999
REV_AT_EPOCH   = 572
BSTAR          = .1321E-2
MEAN_MOTION_DOT = .52749E-3
MEAN_MOTION_DDOT = 0

CCSDS_OMM_VERS = 2.0
CREATION_DATE  = 
ORIGINATOR     = 

OBJECT_NAME    = STARLINK-35465
OBJECT_ID      = 2025-223T
CENTER_NAME    = EARTH
REF_FRAME      = TEME
TIME_SYSTEM    = UTC
MEAN_ELEMENT_THEORY = SGP/SGP4

EPOCH          = 2025-10-30T23:27:01.352736
MEAN_MOTION    = 15.39630376
ECCENTRICITY   = .0001214
INCLINATION    = 53.1614
RA_OF_ASC_NODE = 178.9709
ARG_OF_PERICENTER = 80.4126
MEAN_ANOMALY   = 279.7016

EPHEMERIS_TYPE = 0
CLASSIFICATION_TYPE = U
NORAD_CAT_ID   = 65871
ELEMENT_SET_NO = 999
REV_AT_EPOCH   = 431
BSTAR          = .13697149E-2
MEAN_MOTION_DOT = .54801E-3
MEAN_MOTION_DDOT = 0

CCSDS_OMM_VERS = 2.0
CREATION_DATE  = 
ORIGINATOR     = 

OBJECT_NAME    = STARLINK-34108
OBJECT_ID      = 2025-223U
CENTER_NAME    = EARTH
REF_FRAME      = TEME
TIME_SYSTEM    = UTC
MEAN_ELEMENT_THEORY = SGP/SGP4

EPOCH          = 2025-10-31T16:00:01.998720
MEAN_MOTION    = 15.39583045
ECCENTRICITY   = .0001054
INCLINATION    = 53.1595
RA_OF_ASC_NODE = 175.5677
ARG_OF_PERICENTER = 114.7107
MEAN_ANOMALY   = 186.9635

EPHEMERIS_TYPE = 0
CLASSIFICATION_TYPE = U
NORAD_CAT_ID   = 65872
ELEMENT_SET_NO = 999
REV_AT_EPOCH   = 563
BSTAR          = .13443E-2
MEAN_MOTION_DOT = .53687E-3
MEAN_MOTION_DDOT = 0

CCSDS_OMM_VERS = 2.0
CREATION_DATE  = 
ORIGINATOR     = 

OBJECT_NAME    = STARLINK-35423
OBJECT_ID      = 2025-223V
CENTER_NAME    = EARTH
REF_FRAME      = TEME
TIME_SYSTEM    = UTC
MEAN_ELEMENT_THEORY = SGP/SGP4

EPOCH          = 2025-10-31T16:00:01.998720
MEAN_MOTION    = 15.39600764
ECCENTRICITY   = .0001441
INCLINATION    = 53.1596
RA_OF_ASC_NODE = 175.5160
ARG_OF_PERICENTER = 113.2401
MEAN_ANOMALY   = 214.1210

EPHEMERIS_TYPE = 0
CLASSIFICATION_TYPE = U
NORAD_CAT_ID   = 65873
ELEMENT_SET_NO = 999
REV_AT_EPOCH   = 572
BSTAR          = .13583E-2
MEAN_MOTION_DOT = .54284E-3
MEAN_MOTION_DDOT = 0

CCSDS_OMM_VERS = 2.0
CREATION_DATE  = 
ORIGINATOR     = 

OBJECT_NAME    = STARLINK-35425
OBJECT_ID      = 2025-223W
CENTER_NAME    = EARTH
REF_FRAME      = TEME
TIME_SYSTEM    = UTC
MEAN_ELEMENT_THEORY = SGP/SGP4

EPOCH          = 2025-10-31T16:00:01.998720
MEAN_MOTION    = 15.39586272
ECCENTRICITY   = .0001104
INCLINATION    = 53.1598
RA_OF_ASC_NODE = 175.6184
ARG_OF_PERICENTER = 88.7838
MEAN_ANOMALY   = 187.1191

EPHEMERIS_TYPE = 0
CLASSIFICATION_TYPE = U
NORAD_CAT_ID   = 65874
ELEMENT_SET_NO = 999
REV_AT_EPOCH   = 572
BSTAR          = .13381E-2
MEAN_MOTION_DOT = .53439E-3
MEAN_MOTION_DDOT = 0

CCSDS_OMM_VERS = 2.0
CREATION_DATE  = 
ORIGINATOR     = 

OBJECT_NAME    = STARLINK-34688
OBJECT_ID      = 2025-223X
CENTER_NAME    = EARTH
REF_FRAME      = TEME
TIME_SYSTEM    = UTC
MEAN_ELEMENT_THEORY = SGP/SGP4

EPOCH          = 2025-10-31T16:00:01.998720
MEAN_MOTION    = 15.39575878
ECCENTRICITY   = .0001334
INCLINATION    = 53.1597
RA_OF_ASC_NODE = 175.4653
ARG_OF_PERICENTER = 107.5539
MEAN_ANOMALY   = 245.6361

EPHEMERIS_TYPE = 0
CLASSIFICATION_TYPE = U
NORAD_CAT_ID   = 65875
ELEMENT_SET_NO = 999
REV_AT_EPOCH   = 572
BSTAR          = .15424E-2
MEAN_MOTION_DOT = .61705E-3
MEAN_MOTION_DDOT = 0

CCSDS_OMM_VERS = 2.0
CREATION_DATE  = 
ORIGINATOR     = 

OBJECT_NAME    = STARLINK-34438
OBJECT_ID      = 2025-223Y
CENTER_NAME    = EARTH
REF_FRAME      = TEME
TIME_SYSTEM    = UTC
MEAN_ELEMENT_THEORY = SGP/SGP4

EPOCH          = 2025-10-31T16:00:01.998720
MEAN_MOTION    = 15.44195688
ECCENTRICITY   = .000098
INCLINATION    = 53.1596
RA_OF_ASC_NODE = 175.3798
ARG_OF_PERICENTER = 108.6066
MEAN_ANOMALY   = 287.7295

EPHEMERIS_TYPE = 0
CLASSIFICATION_TYPE = U
NORAD_CAT_ID   = 65876
ELEMENT_SET_NO = 999
REV_AT_EPOCH   = 572
BSTAR          = -.49247E-1
MEAN_MOTION_DOT = -.2041636E-1
MEAN_MOTION_DDOT = 0

CCSDS_OMM_VERS = 2.0
CREATION_DATE  = 
ORIGINATOR     = 

OBJECT_NAME    = STARLINK-35462
OBJECT_ID      = 2025-223Z
CENTER_NAME    = EARTH
REF_FRAME      = TEME
TIME_SYSTEM    = UTC
MEAN_ELEMENT_THEORY = SGP/SGP4

EPOCH          = 2025-10-30T22:44:41.961696
MEAN_MOTION    = 15.49338959
ECCENTRICITY   = .00008966
INCLINATION    = 53.1601
RA_OF_ASC_NODE = 178.7857
ARG_OF_PERICENTER = 106.4983
MEAN_ANOMALY   = 253.6125

EPHEMERIS_TYPE = 0
CLASSIFICATION_TYPE = U
NORAD_CAT_ID   = 65877
ELEMENT_SET_NO = 999
REV_AT_EPOCH   = 431
BSTAR          = .14375156E-2
MEAN_MOTION_DOT = .80412E-3
MEAN_MOTION_DDOT = 0

CCSDS_OMM_VERS = 2.0
CREATION_DATE  = 
ORIGINATOR     = 

OBJECT_NAME    = STARLINK-35453
OBJECT_ID      = 2025-223AA
CENTER_NAME    = EARTH
REF_FRAME      = TEME
TIME_SYSTEM    = UTC
MEAN_ELEMENT_THEORY = SGP/SGP4

EPOCH          = 2025-10-31T16:00:01.998720
MEAN_MOTION    = 15.40076462
ECCENTRICITY   = .0001496
INCLINATION    = 53.1599
RA_OF_ASC_NODE = 175.4137
ARG_OF_PERICENTER = 130.0721
MEAN_ANOMALY   = 248.6724

EPHEMERIS_TYPE = 0
CLASSIFICATION_TYPE = U
NORAD_CAT_ID   = 65878
ELEMENT_SET_NO = 999
REV_AT_EPOCH   = 572
BSTAR          = -.20202E-1
MEAN_MOTION_DOT = -.755181E-2
MEAN_MOTION_DDOT = 0

CCSDS_OMM_VERS = 2.0
CREATION_DATE  = 
ORIGINATOR     = 

OBJECT_NAME    = STARLINK-35418
OBJECT_ID      = 2025-223AB
CENTER_NAME    = EARTH
REF_FRAME      = TEME
TIME_SYSTEM    = UTC
MEAN_ELEMENT_THEORY = SGP/SGP4

EPOCH          = 2025-10-30T22:44:12.318720
MEAN_MOTION    = 15.49341283
ECCENTRICITY   = .00011531
INCLINATION    = 53.1601
RA_OF_ASC_NODE = 178.7835
ARG_OF_PERICENTER = 72.7378
MEAN_ANOMALY   = 287.3757

EPHEMERIS_TYPE = 0
CLASSIFICATION_TYPE = U
NORAD_CAT_ID   = 65879
ELEMENT_SET_NO = 999
REV_AT_EPOCH   = 431
BSTAR          = .15016744E-2
MEAN_MOTION_DOT = .84068E-3
MEAN_MOTION_DDOT = 0

CCSDS_OMM_VERS = 2.0
CREATION_DATE  = 
ORIGINATOR     = 

OBJECT_NAME    = STARLINK-35445
OBJECT_ID      = 2025-223AC
CENTER_NAME    = EARTH
REF_FRAME      = TEME
TIME_SYSTEM    = UTC
MEAN_ELEMENT_THEORY = SGP/SGP4

EPOCH          = 2025-10-31T15:47:31.100640
MEAN_MOTION    = 15.48405536
ECCENTRICITY   = .0005804
INCLINATION    = 53.1602
RA_OF_ASC_NODE = 175.3971
ARG_OF_PERICENTER = 199.6945
MEAN_ANOMALY   = 160.3841

EPHEMERIS_TYPE = 0
CLASSIFICATION_TYPE = U
NORAD_CAT_ID   = 65880
ELEMENT_SET_NO = 999
REV_AT_EPOCH   = 442
BSTAR          = .26033E-2
MEAN_MOTION_DOT = .142477E-2
MEAN_MOTION_DDOT = 0

CCSDS_OMM_VERS = 2.0
CREATION_DATE  = 
ORIGINATOR     = 

OBJECT_NAME    = STARLINK-35464
OBJECT_ID      = 2025-223AD
CENTER_NAME    = EARTH
REF_FRAME      = TEME
TIME_SYSTEM    = UTC
MEAN_ELEMENT_THEORY = SGP/SGP4

EPOCH          = 2025-10-31T15:45:31.662144
MEAN_MOTION    = 15.49408628
ECCENTRICITY   = .0001716
INCLINATION    = 53.1605
RA_OF_ASC_NODE = 175.3895
ARG_OF_PERICENTER = 111.6428
MEAN_ANOMALY   = 248.4764

EPHEMERIS_TYPE = 0
CLASSIFICATION_TYPE = U
NORAD_CAT_ID   = 65881
ELEMENT_SET_NO = 999
REV_AT_EPOCH   = 442
BSTAR          = .27374E-2
MEAN_MOTION_DOT = .155403E-2
MEAN_MOTION_DDOT = 0

CCSDS_OMM_VERS = 2.0
CREATION_DATE  = 
ORIGINATOR     = 

OBJECT_NAME    = STARLINK-35270
OBJECT_ID      = 2025-224A
CENTER_NAME    = EARTH
REF_FRAME      = TEME
TIME_SYSTEM    = UTC
MEAN_ELEMENT_THEORY = SGP/SGP4

EPOCH          = 2025-10-31T16:00:01.998720
MEAN_MOTION    = 15.49428824
ECCENTRICITY   = .0001207
INCLINATION    = 53.1589
RA_OF_ASC_NODE = 252.6506
ARG_OF_PERICENTER = 98.5770
MEAN_ANOMALY   = 208.5082

EPHEMERIS_TYPE = 0
CLASSIFICATION_TYPE = U
NORAD_CAT_ID   = 65882
ELEMENT_SET_NO = 999
REV_AT_EPOCH   = 509
BSTAR          = -.45309E-2
MEAN_MOTION_DOT = -.24572E-2
MEAN_MOTION_DDOT = 0

CCSDS_OMM_VERS = 2.0
CREATION_DATE  = 
ORIGINATOR     = 

OBJECT_NAME    = STARLINK-35367
OBJECT_ID      = 2025-224B
CENTER_NAME    = EARTH
REF_FRAME      = TEME
TIME_SYSTEM    = UTC
MEAN_ELEMENT_THEORY = SGP/SGP4

EPOCH          = 2025-10-31T16:00:01.998720
MEAN_MOTION    = 15.49278714
ECCENTRICITY   = .0001468
INCLINATION    = 53.1588
RA_OF_ASC_NODE = 252.6429
ARG_OF_PERICENTER = 86.0287
MEAN_ANOMALY   = 224.8503

EPHEMERIS_TYPE = 0
CLASSIFICATION_TYPE = U
NORAD_CAT_ID   = 65883
ELEMENT_SET_NO = 999
REV_AT_EPOCH   = 509
BSTAR          = .4401E-3
MEAN_MOTION_DOT = .24077E-3
MEAN_MOTION_DDOT = 0

